{
  "type": "FeatureCollection",
  "features": [
    {
      "type": "Feature",
      "geometry": {
        "bbox": [
          13.295474580138166,
          52.52019901788721,
          13.316836415405396,
          52.532007780035194
        ],
        "type": "Polygon",
        "coordinates": [
          [
            [
              13.295879585253411,
              52.52977773997976
            ],
            [
              13.301934679159185,
              52.5305311992958
            ],
            [
              13.308733368249852,
              52.53145430724356
            ],
            [
              13.312874687483893,
              52.532007780035194
            ],
            [
              13.31387412988529,
              52.52986487242547
            ],
            [
              13.314943433239932,
              52.52665742753907
            ],
            [
              13.315998487480986,
              52.524061895445904
            ],
            [
              13.31677831018102,
              52.52139643137022
            ],
            [
              13.316836415405396,
              52.52019901788721
            ],
            [
              13.314421890854065,
              52.52026023426162
            ],
            [
              13.312912813009545,
              52.52068874649454
            ],
            [
              13.308754465171283,
              52.52054590954804
            ],
            [
              13.305099143280781,
              52.52093360875103
            ],
            [
              13.301913312275707,
              52.52177021116302
            ],
            [
              13.298761016333572,
              52.52211709041741
            ],
            [
              13.297889104689927,
              52.52236194471284
            ],
            [
              13.296581237224194,
              52.525973387041795
            ],
            [
              13.295474580138166,
              52.529237712170264
            ],
            [
              13.295879585253411,
              52.52977773997976
            ]
          ]
        ]
      },
      "properties": {
        "FID": 0
      }
    }
  ]
}